{"version": 0.6, "generator": "Overpass API 0.7.62.8 e802775f", "osm3s": {"timestamp_osm_base": "2025-10-28T21:12:44Z", "copyright": "The data included in this document is from www.openstreetmap.org. The data is made available under ODbL."}, "elements": [{"type": "node", "id": 3459846960, "lat": -21.2203512, "lon": -43.7734003}, {"type": "node", "id": 3459846961, "lat": -21.2201555, "lon": -43.7733439}, {"type": "node", "id": 3459846962, "lat": -21.2200695, "lon": -43.7735744}, {"type": "node", "id": 3459846963, "lat": -21.2200337, "lon": -43.7735719}, {"type": "node", "id": 3459846964, "lat": -21.2199096, "lon": -43.7740021}, {"type": "node", "id": 3459846965, "lat": -21.2201029, "lon": -43.7741251}, {"type": "node", "id": 3459870174, "lat": -21.2196347, "lon": -43.7706198}, {"type": "node", "id": 3459870175, "lat": -21.2197646, "lon": -43.770644}, {"type": "node", "id": 3459870176, "lat": -21.2197005, "lon": -43.7710393}, {"type": "node", "id": 3459870177, "lat": -21.2198611, "lon": -43.7710692}, {"type": "node", "id": 4828714369, "lat": -21.2194962, "lon": -43.7714735}, {"type": "node", "id": 4828714370, "lat": -21.2197867, "lon": -43.7715277}, {"type": "way", "id": 338840778, "nodes": [3459846960, 3459846961, 3459846962, 3459846963, 3459846964, 3459846965, 3459846960], "tags": {"addr:city": "Barbacena", "addr:housenumber": "352", "addr:street": "Rua Coronel Te\u00f3filo", "addr:suburb": "Centro", "building": "yes", "name": "Plaza Center Shopping", "phone": "+55 32 3333-3441", "shop": "mall", "website": "http://www.plazacentershopping.com/"}}, {"type": "way", "id": 490689364, "nodes": [3459870174, 3459870175, 3459870176, 3459870177, 4828714370, 4828714369, 3459870174], "tags": {"addr:city": "Barbacena", "addr:housenumber": "140-166", "addr:street": "Rua Tiradentes", "building": "yes", "name": "BQ Shopping", "phone": "+55 32 3331-6900", "shop": "mall", "website": "http://www.bqshopping.com.br/"}}]}